[
    {
        "Altitude(m)": 604221.1922163637,
        "Argument of Periapsis(deg)": 0.0,
        "Eccentricity": 0.0,
        "Inclination(deg)": 60.0,
        "Latitude(deg)": 14.117176789902329,
        "Longitude(deg)": -71.66585654612068,
        "Mean Anomaly(deg)": 16.3636,
        "RAAN(deg)": 20.0,
        "Satellite Name": "Test1 89",
        "Satellite Number": 89,
        "Semi-Major Axis(m)": 6980739.136638005,
        "Time(s)": 0
    },
    {
        "Altitude(m)": 604235.3327485827,
        "Argument of Periapsis(deg)": 0.00010418945913296404,
        "Eccentricity": 0.0,
        "Inclination(deg)": 60.0,
        "Latitude(deg)": 14.651573767896068,
        "Longitude(deg)": -71.377410100571,
        "Mean Anomaly(deg)": 16.98370614546183,
        "RAAN(deg)": 19.99957995086026,
        "Satellite Name": "Test1 89",
        "Satellite Number": 89,
        "Semi-Major Axis(m)": 6980739.136638005,
        "Time(s)": 10
    }
]